CYGNUS NG-23            
1 65616U 25208A   26001.79090475  .00014103  00000+0  26338-3 0  9994
2 65616  51.6329  43.1850 0007502 328.5908  31.4631 15.49013666   225
DRAGONFLY               
1 65729U 98067XH  26001.78092727  .00347575  00000+0  17249-2 0  9995
2 65729  51.6242  32.5778 0008817  33.5283 326.6275 15.80408153 16329
1998-067XK              
1 65731U 98067XK  26001.36769096  .00152587  00000+0  12189-2 0  9997
2 65731  51.6292  37.3597 0005223   6.3823 353.7240 15.70097429 16226
RSP-03                  
1 65732U 98067XL  26001.96274252  .00236283  00000+0  15253-2 0  9990
2 65732  51.6259  33.0629 0006450  16.2904 343.8302 15.74839560 16348
GHS-01                  
1 65733U 98067XM  25365.48362391  .00449903  00000+0  17624-2 0  9991
2 65733  51.6279  38.1728 0009735  30.7902 329.3671 15.85182050 16148
YOTSUBA-KULOVER         
1 65941U 98067XN  26001.56071904  .00115643  00000+0  12620-2 0  9998
2 65941  51.6300  40.1525 0003370  38.1673 321.9559 15.62488013 12959
BOTAN                   
1 65942U 98067XP  26001.95905527  .00181053  00000+0  15792-2 0  9990
2 65942  51.6276  36.8072 0004324  27.9219 332.2009 15.67867696 13031
E-KAGAKU-1              
1 65943U 98067XQ  26001.36880288  .00107212  00000+0  11721-2 0  9995
2 65943  51.6307  41.1262 0002024  24.8503 335.2588 15.62480347 12925
HTV-X1                  
1 66174U 25241A   26001.79090475  .00014103  00000+0  26338-3 0  9991
2 66174  51.6329  43.1850 0007502 328.5908  31.4631 15.49013666   517
SHENZHOU-22             
1 66645U 25272A   26001.95000001  .00026593  00000+0  32148-3 0  9994
2 66645  41.4663 253.9368 0010148 200.7574 159.2853 15.60041329267142
